[{"OBJECT_NAME":"STARLINK-2503","OBJECT_ID":"2021-027BM","EPOCH":"2026-03-10T00:00:02.999808","MEAN_MOTION":15.12045111,"ECCENTRICITY":0.00018339,"INCLINATION":53.0753,"RA_OF_ASC_NODE":150.1568,"ARG_OF_PERICENTER":101.727,"MEAN_ANOMALY":130.0944,"EPHEMERIS_TYPE":0,"CLASSIFICATION_TYPE":"U","NORAD_CAT_ID":48151,"ELEMENT_SET_NO":999,"REV_AT_EPOCH":569,"BSTAR":0.0047324617,"MEAN_MOTION_DOT":0.00082958,"MEAN_MOTION_DDOT":0},{"OBJECT_NAME":"AAC-HSI-SAT1","OBJECT_ID":"2023-054AZ","EPOCH":"2026-03-09T21:58:39.446112","MEAN_MOTION":15.121108,"ECCENTRICITY":0.00115868,"INCLINATION":97.3836,"RA_OF_ASC_NODE":308.6521,"ARG_OF_PERICENTER":105.3166,"MEAN_ANOMALY":254.9346,"EPHEMERIS_TYPE":0,"CLASSIFICATION_TYPE":"U","NORAD_CAT_ID":56225,"ELEMENT_SET_NO":999,"REV_AT_EPOCH":16036,"BSTAR":0.00016323049,"MEAN_MOTION_DOT":2.752e-5,"MEAN_MOTION_DDOT":0}]
